[{"OBJECT_NAME":"COSMOS 2490 (RODNIK-S 9)","OBJECT_ID":"2013-076C","EPOCH":"2026-03-09T21:24:36.853344","MEAN_MOTION":12.42873681,"ECCENTRICITY":0.00206499,"INCLINATION":82.4798,"RA_OF_ASC_NODE":230.0091,"ARG_OF_PERICENTER":329.5508,"MEAN_ANOMALY":30.4371,"EPHEMERIS_TYPE":0,"CLASSIFICATION_TYPE":"U","NORAD_CAT_ID":39485,"ELEMENT_SET_NO":999,"REV_AT_EPOCH":55354,"BSTAR":-0.00092311778,"MEAN_MOTION_DOT":-1.18e-6,"MEAN_MOTION_DDOT":0},{"OBJECT_NAME":"COSMOS 717","OBJECT_ID":"1975-016G","EPOCH":"2026-03-10T00:02:53.572416","MEAN_MOTION":12.39833252,"ECCENTRICITY":0.00353574,"INCLINATION":74.0048,"RA_OF_ASC_NODE":163.0879,"ARG_OF_PERICENTER":168.7057,"MEAN_ANOMALY":8.8889,"EPHEMERIS_TYPE":0,"CLASSIFICATION_TYPE":"U","NORAD_CAT_ID":7684,"ELEMENT_SET_NO":999,"REV_AT_EPOCH":30954,"BSTAR":8.489657e-5,"MEAN_MOTION_DOT":-4.0e-8,"MEAN_MOTION_DDOT":0}]
